OBJECT_NAME,OBJECT_ID,EPOCH,MEAN_MOTION,ECCENTRICITY,INCLINATION,RA_OF_ASC_NODE,ARG_OF_PERICENTER,MEAN_ANOMALY,EPHEMERIS_TYPE,CLASSIFICATION_TYPE,NORAD_CAT_ID,ELEMENT_SET_NO,REV_AT_EPOCH,BSTAR,MEAN_MOTION_DOT,MEAN_MOTION_DDOT
SL-16 R/B,1996-051B,2026-06-03T15:30:51.660864,14.12441490,.0014292,70.7634,353.3077,357.7855,2.3198,0,U,24298,999,53378,.10371E-3,.142E-5,0
ORBVIEW 2 (SEASTAR),1997-037A,2026-06-03T23:40:06.823776,14.35546238,.0002742,98.8679,321.6404,143.7944,216.3427,0,U,24883,999,52085,.11083E-3,.272E-5,0
SL-16 R/B,1998-043G,2026-06-03T11:17:52.371456,14.26066141,.00107658,98.8359,108.5125,122.3726,237.8497,0,U,25400,999,45121,.43380779E-4,.58E-6,0
SL-16 R/B,1998-045B,2026-06-04T00:39:48.544416,14.16203190,.0009541,71.0121,0.0058,256.9408,103.0651,0,U,25407,999,43932,.14737E-3,.244E-5,0
ISS (ZARYA),1998-067A,2026-06-03T23:13:08.053248,15.49590346,.0007082,51.6330,5.5404,130.0270,230.1341,0,U,25544,999,56970,.15807E-3,.8451E-4,0
CZ-4B R/B,1999-025C,2026-06-04T02:02:59.538048,14.18281192,.003826,98.6489,197.2530,96.2684,317.9376,0,U,25732,999,40041,.59207E-4,.8E-6,0
OKEAN-O,1999-039A,2026-06-04T00:47:11.004000,14.80450346,.0001896,97.9320,213.9810,82.8886,277.2542,0,U,25860,999,44716,.96255E-4,.684E-5,0
SL-16 R/B,1999-039B,2026-06-04T01:36:11.663424,14.81832001,.001427,97.9843,213.9665,342.4851,17.5868,0,U,25861,999,44965,.89461E-4,.654E-5,0
DELTA 2 R/B,1999-041E,2026-06-03T15:45:19.654272,14.11990288,.0501108,51.7658,317.8456,242.0234,112.9132,0,U,25876,999,37517,.14945E-3,.694E-5,0
HELIOS 1B,1999-064A,2026-06-03T15:53:37.239648,14.87968134,.0002253,98.1625,59.4101,109.7874,250.3585,0,U,25977,999,69804,.18277E-3,.1617E-4,0
TERRA,1999-068A,2026-06-04T03:31:51.593088,14.61092589,.0000811,97.9462,205.2097,264.5270,179.3894,0,U,25994,999,40770,.11028E-3,.498E-5,0
SL-16 R/B,2000-006B,2026-06-03T15:23:50.523072,14.15837347,.0014836,71.0033,277.1057,45.0794,315.1530,0,U,26070,999,36072,.1731E-4,-.14E-6,0
TITAN 4B R/B,2000-047B,2026-06-04T03:28:53.049216,15.10118403,.004537,67.9869,157.2818,300.2597,59.4065,0,U,26474,999,40596,.22338E-3,.36E-4,0
ENVISAT,2002-009A,2026-06-03T11:48:33.825024,14.39061394,.00013312,98.3829,106.1165,92.0435,19.9609,0,U,27386,999,27151,.49997679E-4,.112E-5,0
IDEFIX & ARIANE 42P R/B,2002-021B,2026-06-03T10:13:07.671936,14.31075278,.00107528,98.5941,92.0582,298.8139,61.1964,0,U,27422,999,25628,.1180933E-3,.267E-5,0
AQUA,2002-022A,2026-06-04T04:39:41.935968,14.62137705,.000161,98.4271,124.2182,56.6402,33.2429,0,U,27424,999,28137,.20852E-3,.999E-5,0
CZ-4B R/B,2002-024C,2026-06-04T01:59:47.686848,14.14562256,.0050923,98.8704,207.9874,136.7538,279.9487,0,U,27432,999,24145,.52513E-4,.58E-6,0
MIDORI II (ADEOS-II),2002-056A,2026-06-03T11:42:19.052928,14.29341638,.0002177,98.7872,113.6317,96.1451,263.9978,0,U,27597,999,22255,.14226E-3,.317E-5,0
H-2A R/B,2002-056E,2026-06-03T11:35:20.537376,14.33815770,.00688353,98.3306,111.6572,266.0531,202.3504,0,U,27601,999,22640,.10004215E-3,.243E-5,0
CZ-4B R/B,2003-049C,2026-06-03T14:47:02.400864,14.55090366,.00475034,98.6894,152.9224,330.8112,29.0430,0,U,28059,999,19909,.96037238E-4,.368E-5,0
CZ-2C R/B,2004-012C,2026-06-03T04:56:50.998848,15.76297464,.0008228,97.7100,228.2705,345.2948,14.8076,0,U,28222,999,21769,.61038E-3,.96678E-3,0
SL-16 R/B,2004-021B,2026-06-04T00:12:46.414656,14.14613232,.0007451,71.0025,51.3458,269.5083,90.5186,0,U,28353,999,13504,-.23717E-4,-.93E-6,0
CZ-4B R/B,2004-035C,2026-06-04T01:21:51.482304,15.30421930,.0031514,97.3368,188.2801,25.1070,335.1695,0,U,28415,999,19311,.31779E-3,.9416E-4,0
CZ-2C R/B,2004-046B,2026-06-03T15:48:55.399392,14.27023466,.0138083,98.1954,64.2840,260.5740,97.9811,0,U,28480,999,12076,.61753E-4,.124E-5,0
ARIANE 5 R/B,2004-049H,2026-06-04T01:29:43.355040,14.85429493,.0085158,98.2713,326.8091,71.4879,289.5565,0,U,28499,999,15861,.11757E-3,.1017E-4,0
CZ-2D R/B,2005-024B,2026-06-04T00:23:08.744352,15.68086346,.0005457,97.3490,173.8010,82.9591,277.2290,0,U,28738,999,15327,.50506E-3,.56235E-3,0
ALOS (DAICHI),2006-002A,2026-06-03T11:27:14.744736,14.70020825,.0001949,98.1317,110.0882,66.5331,293.6079,0,U,28931,999,8608,.22358505E-3,.1292E-4,0
H-2A R/B,2006-002B,2026-06-04T00:03:58.148640,15.17891973,.0049669,98.2552,309.6413,308.2411,51.4355,0,U,28932,999,10752,.3025E-3,.6247E-4,0
RESURS-DK 1,2006-021A,2026-06-04T00:18:23.517216,15.13154696,.0006031,69.9332,13.6552,303.6136,56.4455,0,U,29228,999,10058,.13939E-3,.237E-4,0
CZ-4B R/B,2006-046C,2026-06-04T01:36:27.402048,15.17682541,.003169,97.5455,199.7150,330.3898,29.5540,0,U,29507,999,7314,.26011E-3,.5238E-4,0
CZ-2C R/B,2007-010B,2026-06-03T07:44:20.381568,14.20272773,.0059778,98.4088,263.3526,46.1443,314.4652,0,U,31114,999,99187,.73245508E-4,.119E-5,0
